EUTELSAT QUANTUM        
1 49056U 21069B   25347.98308567  .00000142  00000+0  00000+0 0  9994
2 49056   0.0255  46.1867 0003562 229.4434 208.8952  1.00273424 16075
EUTELSAT KONNECT VHTS   
1 53765U 22110A   25346.99025369  .00000030  00000+0  00000+0 0  9996
2 53765   0.0657 101.0037 0002383 141.1037 199.0310  1.00271501  4959
EUTELSAT HOTBIRD 13F    
1 54048U 22134A   25347.63432370  .00000102  00000+0  00000+0 0  9993
2 54048   0.0478 293.4985 0002297  66.2228 324.1956  1.00270384 11511
EUTELSAT HOTBIRD 13G    
1 54225U 22146A   25347.34892853  .00000101  00000+0  00000+0 0  9996
2 54225   0.0478 234.0643 0001736 306.9385  39.8842  1.00272446  5603
EUTELSAT 10B            
1 54259U 22157A   25347.93308625  .00000085  00000+0  00000+0 0  9990
2 54259   0.0596 100.0826 0000600  37.7062 290.9521  1.00270124 11169
EUTELSAT 36D            
1 59346U 24059A   25347.92416547  .00000000  00000+0  00000+0 0  9994
2 59346   0.0208 350.2540 0000427  12.5977  88.5315  1.00269756  6295
